[{"OBJECT_NAME":"NEE-02 KRYSAOR","OBJECT_ID":"2013-066AB","EPOCH":"2026-03-09T09:04:24.249216","MEAN_MOTION":14.86160783,"ECCENTRICITY":0.006776,"INCLINATION":97.8816,"RA_OF_ASC_NODE":8.3817,"ARG_OF_PERICENTER":38.0821,"MEAN_ANOMALY":322.5155,"EPHEMERIS_TYPE":0,"CLASSIFICATION_TYPE":"U","NORAD_CAT_ID":39441,"ELEMENT_SET_NO":999,"REV_AT_EPOCH":66137,"BSTAR":0.00046918892,"MEAN_MOTION_DOT":4.234e-5,"MEAN_MOTION_DDOT":0},{"OBJECT_NAME":"CZ-6A DEB","OBJECT_ID":"2022-151VP","EPOCH":"2026-03-09T01:44:42.359136","MEAN_MOTION":14.58782348,"ECCENTRICITY":0.00927193,"INCLINATION":98.6246,"RA_OF_ASC_NODE":122.242,"ARG_OF_PERICENTER":253.7207,"MEAN_ANOMALY":105.3777,"EPHEMERIS_TYPE":0,"CLASSIFICATION_TYPE":"U","NORAD_CAT_ID":55198,"ELEMENT_SET_NO":999,"REV_AT_EPOCH":17004,"BSTAR":0.0019776877,"MEAN_MOTION_DOT":9.766e-5,"MEAN_MOTION_DDOT":0}]
